stk.v.4.3 

BEGIN Ephemeris 
 
NumberOfEphemerisPoints		146 
ScenarioEpoch	    3 Sep 2020 13:29: 2.508579791 
InterpolationMethod		Lagrange 
InterpolationOrder		5 
CentralBody				Earth 
CoordinateSystem			TEME 
CoordinateSystemEpoch	  3 Sep 2020 13:29: 2.508579791 
DistanceUnit			Kilometers 
 
EphemerisTimePosVel 
 
       0.00000000   -2307.03837781   -6777.04285485       0.03606672  0.447321537 -0.141935074  7.448598982
 END Ephemeris 
